{
    "links": {
        "self": "http://www.neowsapp.com/rest/v1/neo/3726448?api_key=iIulBulltgU6a56xZRHN4H3l9WmuAYTsLGpBGhQ2"
    },
    "id": "3726448",
    "neo_reference_id": "3726448",
    "name": "(2015 QJ3)",
    "designation": "2015 QJ3",
    "nasa_jpl_url": "http://ssd.jpl.nasa.gov/sbdb.cgi?sstr=3726448",
    "absolute_magnitude_h": 20.8,
    "estimated_diameter": {
        "kilometers": {
            "estimated_diameter_min": 0.1838886721,
            "estimated_diameter_max": 0.411187571
        },
        "meters": {
            "estimated_diameter_min": 183.8886720703,
            "estimated_diameter_max": 411.1875710413
        },
        "miles": {
            "estimated_diameter_min": 0.1142630881,
            "estimated_diameter_max": 0.2555000322
        },
        "feet": {
            "estimated_diameter_min": 603.309310875,
            "estimated_diameter_max": 1349.040630575
        }
    },
    "is_potentially_hazardous_asteroid": false,
    "close_approach_data": [
        {
            "close_approach_date": "1986-08-28",
            "close_approach_date_full": "1986-Aug-28 20:32",
            "epoch_date_close_approach": 525645120000,
            "relative_velocity": {
                "kilometers_per_second": "19.2127369275",
                "kilometers_per_hour": "69165.8529388546",
                "miles_per_hour": "42976.9712330344"
            },
            "miss_distance": {
                "astronomical": "0.2900344857",
                "lunar": "112.8234149373",
                "kilometers": "43388541.287265459",
                "miles": "26960389.3860389742"
            },
            "orbiting_body": "Earth"
        },
        {
            "close_approach_date": "2015-08-30",
            "close_approach_date_full": "2015-Aug-30 10:48",
            "epoch_date_close_approach": 1440931680000,
            "relative_velocity": {
                "kilometers_per_second": "19.0448705628",
                "kilometers_per_hour": "68561.5340262006",
                "miles_per_hour": "42601.4709620023"
            },
            "miss_distance": {
                "astronomical": "0.2511091016",
                "lunar": "97.6814405224",
                "kilometers": "37565386.736973592",
                "miles": "23342048.9331638896"
            },
            "orbiting_body": "Earth"
        },
        {
            "close_approach_date": "2044-08-31",
            "close_approach_date_full": "2044-Aug-31 00:07",
            "epoch_date_close_approach": 2356214820000,
            "relative_velocity": {
                "kilometers_per_second": "18.9823028849",
                "kilometers_per_hour": "68336.290385482",
                "miles_per_hour": "42461.5133231346"
            },
            "miss_distance": {
                "astronomical": "0.2348527801",
                "lunar": "91.3577314589",
                "kilometers": "35133475.666538387",
                "miles": "21830929.4655362606"
            },
            "orbiting_body": "Earth"
        }
    ],
    "orbital_data": {
        "orbit_id": "22",
        "orbit_determination_date": "2017-04-06 08:32:21",
        "first_observation_date": "2015-08-14",
        "last_observation_date": "2015-09-23",
        "data_arc_in_days": 40,
        "observations_used": 90,
        "orbit_uncertainty": "6",
        "minimum_orbit_intersection": ".236263",
        "jupiter_tisserand_invariant": "3.334",
        "epoch_osculation": "2459000.5",
        "eccentricity": ".4295559864722068",
        "semi_major_axis": "2.182498217359775",
        "inclination": "35.69303570922657",
        "ascending_node_longitude": "338.4556400644346",
        "orbital_period": "1177.685351985415",
        "perihelion_distance": "1.244993042627964",
        "perihelion_argument": "359.484026649593",
        "aphelion_distance": "3.120003392091586",
        "perihelion_time": "2458438.286940374515",
        "mean_anomaly": "171.8597426077872",
        "mean_motion": ".3056843658563722",
        "equinox": "J2000",
        "orbit_class": {
            "orbit_class_type": "AMO",
            "orbit_class_description": "Near-Earth asteroid orbits similar to that of 1221 Amor",
            "orbit_class_range": "1.017 AU < q (perihelion) < 1.3 AU"
        }
    },
    "is_sentry_object": false
}